ONEWEB-0341             
1 49207U 21083X   26145.07381149  .00000023  00000+0  25263-4 0  9993
2 49207  87.9163 340.0594 0001713 104.5639 255.5683 13.18685722226943
ONEWEB-0342             
1 49208U 21083Y   26145.09354066 -.00000026  00000+0 -95773-4 0  9992
2 49208  87.9174 279.0410 0001782  98.7581 261.3754 13.20772049233731
ONEWEB-0343             
1 49209U 21083Z   26145.08224301  .00000004  00000+0 -23583-4 0  9995
2 49209  87.9168 340.0558 0001411  84.9179 275.2114 13.18684700226993
ONEWEB-0344             
1 49210U 21083AA  26145.19040705 -.00000028  00000+0 -11171-3 0  9999
2 49210  87.8931 324.8247 0002441  96.1112 264.0296 13.13461502227876
ONEWEB-0345             
1 49211U 21083AB  26144.95339612  .00000357  00000+0  94230-3 0  9991
2 49211  87.8947 324.8490 0001697 102.3095 257.8224 13.13468923227859
ONEWEB-0346             
1 49212U 21083AC  26145.07886873  .00000041  00000+0  71542-4 0  9994
2 49212  87.9160 340.0582 0002475  93.0643 267.0772 13.18685790226937
ONEWEB-0348             
1 49213U 21083AD  26144.78039306  .00000013  00000+0  17191-6 0  9994
2 49213  87.9177 279.1072 0002307 109.0132 251.1252 13.20770549233729
ONEWEB-0350             
1 49214U 21083AE  26145.19123359  .00000212  00000+0  54660-3 0  9993
2 49214  87.8953 324.8033 0001810 103.5454 256.5877 13.13468331227911
ONEWEB-0351             
1 49215U 21083AF  26144.92504206 -.00000045  00000+0 -14207-3 0  9997
2 49215  87.9177 279.0768 0001070 112.2787 247.8459 13.20772610233700
ONEWEB-0352             
1 49216U 21083AG  26145.01941826  .00000333  00000+0  87611-3 0  9999
2 49216  87.8940 324.8484 0001382  89.4706 270.6581 13.13469223227982
ONEWEB-0354             
1 49217U 21083AH  26145.10365149  .00000008  00000+0 -12957-4 0  9990
2 49217  87.9176 279.0404 0002134 109.3226 250.8138 13.20771669233762
ONEWEB-0355             
1 49218U 21083AJ  26145.04832529 -.00000040  00000+0 -14397-3 0  9991
2 49218  87.8930 324.8455 0001596  96.0465 264.0846 13.13468015227860
ONEWEB-0357             
1 49219U 21083AK  26145.10028260  .00000046  00000+0  81304-4 0  9995
2 49219  87.9176 279.0353 0001691 100.7491 259.3833 13.20772093233761
ONEWEB-0332             
1 49279U 21090A   26145.15494551  .00000032  00000+0  53152-4 0  9999
2 49279  87.8941 294.3025 0001698  90.7758 269.3566 13.14503714224559
ONEWEB-0347             
1 49280U 21090B   26145.09016906 -.00001013  00000+0 -25230-2 0  9994
2 49280  87.9177 279.0457 0001913  91.7888 268.3465 13.20762310227991
ONEWEB-0349             
1 49281U 21090C   26145.12215161  .00000053  00000+0  97220-4 0  9994
2 49281  87.9175 279.0398 0001865 100.0495 260.0849 13.20769502226789
