[{"OBJECT_NAME":"ONEWEB-0341","OBJECT_ID":"2021-083X","EPOCH":"2026-05-25T01:46:17.312736","MEAN_MOTION":13.18685722,"ECCENTRICITY":0.0001713,"INCLINATION":87.9163,"RA_OF_ASC_NODE":340.0594,"ARG_OF_PERICENTER":104.5639,"MEAN_ANOMALY":255.5683,"EPHEMERIS_TYPE":0,"CLASSIFICATION_TYPE":"U","NORAD_CAT_ID":49207,"ELEMENT_SET_NO":999,"REV_AT_EPOCH":22694,"BSTAR":2.5263000000000002e-05,"MEAN_MOTION_DOT":2.3e-07,"MEAN_MOTION_DDOT":0.0},{"OBJECT_NAME":"ONEWEB-0342","OBJECT_ID":"2021-083Y","EPOCH":"2026-05-25T02:14:41.913024","MEAN_MOTION":13.20772049,"ECCENTRICITY":0.0001782,"INCLINATION":87.9174,"RA_OF_ASC_NODE":279.041,"ARG_OF_PERICENTER":98.7581,"MEAN_ANOMALY":261.3754,"EPHEMERIS_TYPE":0,"CLASSIFICATION_TYPE":"U","NORAD_CAT_ID":49208,"ELEMENT_SET_NO":999,"REV_AT_EPOCH":23373,"BSTAR":-9.5773e-05,"MEAN_MOTION_DOT":-2.6e-07,"MEAN_MOTION_DDOT":0.0},{"OBJECT_NAME":"ONEWEB-0343","OBJECT_ID":"2021-083Z","EPOCH":"2026-05-25T01:58:25.796064","MEAN_MOTION":13.186847,"ECCENTRICITY":0.0001411,"INCLINATION":87.9168,"RA_OF_ASC_NODE":340.0558,"ARG_OF_PERICENTER":84.9179,"MEAN_ANOMALY":275.2114,"EPHEMERIS_TYPE":0,"CLASSIFICATION_TYPE":"U","NORAD_CAT_ID":49209,"ELEMENT_SET_NO":999,"REV_AT_EPOCH":22699,"BSTAR":-2.3583e-05,"MEAN_MOTION_DOT":4e-08,"MEAN_MOTION_DDOT":0.0},{"OBJECT_NAME":"ONEWEB-0344","OBJECT_ID":"2021-083AA","EPOCH":"2026-05-25T04:34:11.169120","MEAN_MOTION":13.13461502,"ECCENTRICITY":0.0002441,"INCLINATION":87.8931,"RA_OF_ASC_NODE":324.8247,"ARG_OF_PERICENTER":96.1112,"MEAN_ANOMALY":264.0296,"EPHEMERIS_TYPE":0,"CLASSIFICATION_TYPE":"U","NORAD_CAT_ID":49210,"ELEMENT_SET_NO":999,"REV_AT_EPOCH":22787,"BSTAR":-0.00011171,"MEAN_MOTION_DOT":-2.8e-07,"MEAN_MOTION_DDOT":0.0},{"OBJECT_NAME":"ONEWEB-0345","OBJECT_ID":"2021-083AB","EPOCH":"2026-05-24T22:52:53.424768","MEAN_MOTION":13.13468923,"ECCENTRICITY":0.0001697,"INCLINATION":87.8947,"RA_OF_ASC_NODE":324.849,"ARG_OF_PERICENTER":102.3095,"MEAN_ANOMALY":257.8224,"EPHEMERIS_TYPE":0,"CLASSIFICATION_TYPE":"U","NORAD_CAT_ID":49211,"ELEMENT_SET_NO":999,"REV_AT_EPOCH":22785,"BSTAR":0.0009423000000000001,"MEAN_MOTION_DOT":3.57e-06,"MEAN_MOTION_DDOT":0.0},{"OBJECT_NAME":"ONEWEB-0346","OBJECT_ID":"2021-083AC","EPOCH":"2026-05-25T01:53:34.258272","MEAN_MOTION":13.1868579,"ECCENTRICITY":0.0002475,"INCLINATION":87.916,"RA_OF_ASC_NODE":340.0582,"ARG_OF_PERICENTER":93.0643,"MEAN_ANOMALY":267.0772,"EPHEMERIS_TYPE":0,"CLASSIFICATION_TYPE":"U","NORAD_CAT_ID":49212,"ELEMENT_SET_NO":999,"REV_AT_EPOCH":22693,"BSTAR":7.1542e-05,"MEAN_MOTION_DOT":4.1e-07,"MEAN_MOTION_DDOT":0.0},{"OBJECT_NAME":"ONEWEB-0348","OBJECT_ID":"2021-083AD","EPOCH":"2026-05-24T18:43:45.960384","MEAN_MOTION":13.20770549,"ECCENTRICITY":0.0002307,"INCLINATION":87.9177,"RA_OF_ASC_NODE":279.1072,"ARG_OF_PERICENTER":109.0132,"MEAN_ANOMALY":251.1252,"EPHEMERIS_TYPE":0,"CLASSIFICATION_TYPE":"U","NORAD_CAT_ID":49213,"ELEMENT_SET_NO":999,"REV_AT_EPOCH":23372,"BSTAR":1.7191e-07,"MEAN_MOTION_DOT":1.3e-07,"MEAN_MOTION_DDOT":0.0},{"OBJECT_NAME":"ONEWEB-0350","OBJECT_ID":"2021-083AE","EPOCH":"2026-05-25T04:35:22.582176","MEAN_MOTION":13.13468331,"ECCENTRICITY":0.000181,"INCLINATION":87.8953,"RA_OF_ASC_NODE":324.8033,"ARG_OF_PERICENTER":103.5454,"MEAN_ANOMALY":256.5877,"EPHEMERIS_TYPE":0,"CLASSIFICATION_TYPE":"U","NORAD_CAT_ID":49214,"ELEMENT_SET_NO":999,"REV_AT_EPOCH":22791,"BSTAR":0.0005466,"MEAN_MOTION_DOT":2.12e-06,"MEAN_MOTION_DDOT":0.0},{"OBJECT_NAME":"ONEWEB-0351","OBJECT_ID":"2021-083AF","EPOCH":"2026-05-24T22:12:03.633984","MEAN_MOTION":13.2077261,"ECCENTRICITY":0.000107,"INCLINATION":87.9177,"RA_OF_ASC_NODE":279.0768,"ARG_OF_PERICENTER":112.2787,"MEAN_ANOMALY":247.8459,"EPHEMERIS_TYPE":0,"CLASSIFICATION_TYPE":"U","NORAD_CAT_ID":49215,"ELEMENT_SET_NO":999,"REV_AT_EPOCH":23370,"BSTAR":-0.00014207,"MEAN_MOTION_DOT":-4.5e-07,"MEAN_MOTION_DDOT":0.0},{"OBJECT_NAME":"ONEWEB-0352","OBJECT_ID":"2021-083AG","EPOCH":"2026-05-25T00:27:57.737664","MEAN_MOTION":13.13469223,"ECCENTRICITY":0.0001382,"INCLINATION":87.894,"RA_OF_ASC_NODE":324.8484,"ARG_OF_PERICENTER":89.4706,"MEAN_ANOMALY":270.6581,"EPHEMERIS_TYPE":0,"CLASSIFICATION_TYPE":"U","NORAD_CAT_ID":49216,"ELEMENT_SET_NO":999,"REV_AT_EPOCH":22798,"BSTAR":0.00087611,"MEAN_MOTION_DOT":3.33e-06,"MEAN_MOTION_DDOT":0.0},{"OBJECT_NAME":"ONEWEB-0354","OBJECT_ID":"2021-083AH","EPOCH":"2026-05-25T02:29:15.488736","MEAN_MOTION":13.20771669,"ECCENTRICITY":0.0002134,"INCLINATION":87.9176,"RA_OF_ASC_NODE":279.0404,"ARG_OF_PERICENTER":109.3226,"MEAN_ANOMALY":250.8138,"EPHEMERIS_TYPE":0,"CLASSIFICATION_TYPE":"U","NORAD_CAT_ID":49217,"ELEMENT_SET_NO":999,"REV_AT_EPOCH":23376,"BSTAR":-1.2957e-05,"MEAN_MOTION_DOT":8e-08,"MEAN_MOTION_DDOT":0.0},{"OBJECT_NAME":"ONEWEB-0355","OBJECT_ID":"2021-083AJ","EPOCH":"2026-05-25T01:09:35.305056","MEAN_MOTION":13.13468015,"ECCENTRICITY":0.0001596,"INCLINATION":87.893,"RA_OF_ASC_NODE":324.8455,"ARG_OF_PERICENTER":96.0465,"MEAN_ANOMALY":264.0846,"EPHEMERIS_TYPE":0,"CLASSIFICATION_TYPE":"U","NORAD_CAT_ID":49218,"ELEMENT_SET_NO":999,"REV_AT_EPOCH":22786,"BSTAR":-0.00014397,"MEAN_MOTION_DOT":-4e-07,"MEAN_MOTION_DDOT":0.0},{"OBJECT_NAME":"ONEWEB-0357","OBJECT_ID":"2021-083AK","EPOCH":"2026-05-25T02:24:24.416640","MEAN_MOTION":13.20772093,"ECCENTRICITY":0.0001691,"INCLINATION":87.9176,"RA_OF_ASC_NODE":279.0353,"ARG_OF_PERICENTER":100.7491,"MEAN_ANOMALY":259.3833,"EPHEMERIS_TYPE":0,"CLASSIFICATION_TYPE":"U","NORAD_CAT_ID":49219,"ELEMENT_SET_NO":999,"REV_AT_EPOCH":23376,"BSTAR":8.1304e-05,"MEAN_MOTION_DOT":4.6e-07,"MEAN_MOTION_DDOT":0.0},{"OBJECT_NAME":"ONEWEB-0332","OBJECT_ID":"2021-090A","EPOCH":"2026-05-25T03:43:07.292064","MEAN_MOTION":13.14503714,"ECCENTRICITY":0.0001698,"INCLINATION":87.8941,"RA_OF_ASC_NODE":294.3025,"ARG_OF_PERICENTER":90.7758,"MEAN_ANOMALY":269.3566,"EPHEMERIS_TYPE":0,"CLASSIFICATION_TYPE":"U","NORAD_CAT_ID":49279,"ELEMENT_SET_NO":999,"REV_AT_EPOCH":22455,"BSTAR":5.3152e-05,"MEAN_MOTION_DOT":3.2e-07,"MEAN_MOTION_DDOT":0.0},{"OBJECT_NAME":"ONEWEB-0347","OBJECT_ID":"2021-090B","EPOCH":"2026-05-25T02:09:50.606784","MEAN_MOTION":13.2076231,"ECCENTRICITY":0.0001913,"INCLINATION":87.9177,"RA_OF_ASC_NODE":279.0457,"ARG_OF_PERICENTER":91.7888,"MEAN_ANOMALY":268.3465,"EPHEMERIS_TYPE":0,"CLASSIFICATION_TYPE":"U","NORAD_CAT_ID":49280,"ELEMENT_SET_NO":999,"REV_AT_EPOCH":22799,"BSTAR":-0.0025230000000000005,"MEAN_MOTION_DOT":-1.013e-05,"MEAN_MOTION_DDOT":0.0},{"OBJECT_NAME":"ONEWEB-0349","OBJECT_ID":"2021-090C","EPOCH":"2026-05-25T02:55:53.899104","MEAN_MOTION":13.20769502,"ECCENTRICITY":0.0001865,"INCLINATION":87.9175,"RA_OF_ASC_NODE":279.0398,"ARG_OF_PERICENTER":100.0495,"MEAN_ANOMALY":260.0849,"EPHEMERIS_TYPE":0,"CLASSIFICATION_TYPE":"U","NORAD_CAT_ID":49281,"ELEMENT_SET_NO":999,"REV_AT_EPOCH":22678,"BSTAR":9.722e-05,"MEAN_MOTION_DOT":5.3e-07,"MEAN_MOTION_DDOT":0.0}]